QIANFAN-9               
1 60387U 24140J   25294.98742419  .00000083  00000+0  10936-3 0  9993
2 60387  88.9740 304.7026 0015958 354.8192   5.2792 13.50974515 60342
QIANFAN-10              
1 60388U 24140K   25294.99159831  .00000061  00000+0  76328-4 0  9999
2 60388  88.9749 304.0442 0013645 332.0501  27.9916 13.50971160 60476
QIANFAN-11              
1 60389U 24140L   25294.95451744  .00000045  00000+0  51024-4 0  9992
2 60389  88.9676 304.6740 0014022 355.6502   4.4525 13.50971790 60122
QIANFAN-12              
1 60390U 24140M   25294.97504113  .00000068  00000+0  86156-4 0  9994
2 60390  88.9719 304.6927 0013136   4.5466 355.5802 13.50972190 60250
QIANFAN-13              
1 60391U 24140N   25294.94625623  .00000057  00000+0  69078-4 0  9994
2 60391  88.9731 304.7892 0013072   7.3928 352.7414 13.50972388 60279
QIANFAN-14              
1 60392U 24140P   25294.97084951  .00000051  00000+0  59833-4 0  9993
2 60392  88.9710 304.6953 0016706   5.1906 354.9415 13.50972753 60285
QIANFAN-15              
1 60393U 24140Q   25294.97906126  .00000110  00000+0  15198-3 0  9992
2 60393  88.9731 304.6386 0012036 353.8937   6.2065 13.50970617 60272
QIANFAN-16              
1 60394U 24140R   25294.96689671  .00000043  00000+0  48693-4 0  9997
2 60394  88.9737 304.7585 0014809  10.0682 350.0763 13.50971735 60187
